#dP2022  4  8  0  0  0.00000000      96 __u+U ITR14 FIT  IAC
## 2204 432000.00000000   900.00000000 59677 0.0000000000000
+  125   C01C02C03C04C05C06C07C08C09C10C11C12C14C16C19C20C21
+        C22C23C24C25C26C27C28C29C30C32C33C34C35C36C37C38C39
+        C40C41C42C43C44C45C46C60E01E02E03E04E05E07E08E09E10
+        E11E12E13E14E15E18E19E21E24E25E26E27E30E31E33E34E36
+        G01G02G03G04G05G06G07G08G09G10G12G13G14G15G16G17G18
+        G19G20G21G22G23G24G25G26G27G28G29G30G31G32J02J03J07
+        R01R02R03R04R05R06R07R08R09R10R11R12R13R14R15R17R18
+        R19R20R21R22R23R24  0  0  0  0  0  0  0  0  0  0  0
++        15 15 14 15 15  9  9 10  9  9  9  9  9  9  7  8  7
++         7  7  7  7  7  7  7  7  7  7  7  7  8  8  7  8  8
++         8  7  7  7  7  8  8 14  4  5  4  5  4  5  5  4  5
++         4  5  4  4  4  5  5  4  4  4  4  4  4  4  5  4  4
++         4  4  4  4  4  4  4  4  3  4  4  4  4  4  4  4  4
++         4  4  5  4  4  4  4  4  4  5  4  4  4  4 12 10 16
++         7  6  6  6  6 13  6  6  6 13  8  6  7  6  6  6  6
++         7  7  6  7 13  6  0  0  0  0  0  0  0  0  0  0  0
%c M  cc GPS ccc cccc cccc cccc cccc ccccc ccccc ccccc ccccc
%c cc cc ccc ccc cccc cccc cccc cccc ccccc ccccc ccccc ccccc
%f  0.0000000  0.000000000  0.00000000000  0.000000000000000
%f  0.0000000  0.000000000  0.00000000000  0.000000000000000
%i    0    0    0    0      0      0      0      0         0
%i    0    0    0    0      0      0      0      0         0
/* INFORMATION & ANALYSIS CENTER (IAC)            RAPID DATA
/* S/V CLOCKS ARE ALIGNED TO GNSS TIME                      
/* G:C1WC2W R:C1PC2P E:C1XC5X C:C2IC6I J:C1CC2S             
/* PCV:IGS14_2196 OL/AL:FES2004  NONE     YN ORB:CoN CLK:CoN
*  2022 04 08  1 45  0.00000000
PC01 -34352.819024  24470.724707   -460.429025     58.869926
PC02   4495.334641  41896.598863   -876.848307    148.948012
PC03 -14664.230405  39515.718718  -1320.570509   -563.854572
PC04 -39627.928617  14425.277690   -157.156775     61.929538
PC05  22039.383004  35962.387063   -587.905951    146.707231
PC06 -18632.612389  34565.819165  15086.694443   -245.852489
PC07  -4239.447533  36313.885892  21123.466979     34.728420
PC08  -9238.967811  19277.076293 -36341.084134    245.739166
PC09  -9484.767744  32912.770973  24600.272756   -676.356120
PC10   2431.711199  39499.810996  15460.007915    136.888817
PC11  19755.965641 -19643.811156  -1298.196713    278.189787
PC12  21078.213482  -6130.843796 -17192.885841   -630.182890
PC14   9756.125093 -15986.445701  20695.881579    455.780783
PC16 -20089.381899  34449.877928  13449.557459    115.770076
PC19  -2961.232463  23422.367226 -14863.898258    880.061359
PC20 -13888.674752   7981.393072 -22832.419720   -870.474220
PC21  17150.087122  13329.073226  17557.581738    -73.156094
PC22  10067.586408  25966.596290   2021.018764   -965.843702
PC23 -11900.097979 -16534.537155 -19073.223249   -934.787975
PC24  25126.521798  -3247.152007 -11684.892444   -951.624828
PC25   8108.683036 -14722.878490 -22282.341907   -754.250791
PC26  26404.131935   7955.093290   4141.266687    754.905432
PC27 -17523.595316  -2899.341084  21497.241296    704.380076
PC28  -3049.580476 -18133.511123  20991.914134     52.721616
PC29 -12813.910998  23504.441754  -7876.828514    538.369391
PC30 -21574.758738  14436.927515  10196.755974    496.563106
PC32 -17230.908084 -13226.348418 -17489.862491   -964.090799
PC33   2953.393372 -23365.165520  14966.027536   -969.620362
PC34  21514.462319 -15166.108932  -9321.663394   -430.542252
PC35   2951.843680  18602.597075 -20587.708394    218.637765
PC36  -9036.292059  14338.744739  22189.533350   -964.723498
PC37 -25818.647120  -9243.149307  -5218.418717   -927.205997
PC38 -17318.902894  19106.445460 -33353.318800    223.586776
PC39 -23029.850115  34610.699034   6484.228194     34.933023
PC40  -7517.599008  33160.559445  25016.593107    258.990626
PC41  -9833.894691 -26069.017616  -1485.721161   -968.780002
PC42  14415.301764  -6866.235933  22934.903123   -947.744337
PC43  13399.478745 -23411.281342   7195.756427   -931.292922
PC44  17641.930853   2533.667584 -21494.505756    620.621873
PC45  12183.543162  16385.625773  19009.967334    725.545733
PC46 -24413.585019   4171.006982  12892.919990   -260.100378
PC60   7297.595737  41521.162872  -1110.240536     -0.549243
PE01  24554.194046  14612.624710  -7717.409995   -612.117512
PE02 -24582.158321 -14517.064379   7849.325877    291.400015
PE03 -15568.381437  -8075.721475 -23840.090974   -545.692280
PE04  17012.453591 -13832.424618  19895.676244  -1001.757381
PE05  -4934.286760 -25690.940455 -13840.382498   -192.923942
PE07  -8394.941923  28100.434248  -4036.772916   -656.383468
PE08 -16772.004480  14278.116229 -19773.216399   -508.581896
PE09   8173.494873 -28173.770162   3901.485424   -476.646674
PE10  22710.269349 -15523.934323  10928.341877   -505.330440
PE11  13865.084439 -17937.880167  19034.992780   4019.587279
PE12  27578.880087 -10680.823253   1534.472996   4673.913261
PE13 -14483.612520  17849.088718 -18638.094288    427.867714
PE14   6581.172367 -23485.385209   3087.409148  -1806.258301
PE15 -27575.514064  10651.503081  -1376.703379    753.006771
PE18   1028.737327  28604.950001 -14406.858368  -1590.664174
PE19  14537.266657  10767.092444  23439.103135  -2644.571266
PE21  15916.076366  22889.306416   9932.503699   -727.166923
PE24   3722.712086 -17925.193678 -23282.856136   -548.873097
PE25 -15716.771742 -22932.459505 -10173.425616   -569.615137
PE26   8102.823298  14261.413937 -24636.403462  -1004.611120
PE27  -2432.161040  18574.298747  22912.899242   -271.212453
PE30 -19852.036309   2369.357490  21819.491586   -412.861531
PE31  19173.234789  -3377.786880 -22293.245135   -494.730812
PE33  24355.809997   2778.950355 -16598.088850   -457.825485
PE34 -24467.872976  -2599.152563  16447.911008   -510.916347
PE36  -6996.219994 -14521.413110  24828.324068   -356.540831
PG01   4844.841012  14054.467155 -22316.022919    390.149610
PG02  17131.421449 -15215.753935  14209.020644   -652.979866
PG03  11327.455465  22239.051087  -9355.645642   -197.561991
PG04   1237.699171  23055.043176  13062.317723   -177.696579
PG05   2363.583559 -17395.950165  19723.590693    -77.511385
PG06  26023.369764  -5528.777830    332.529877    258.847132
PG07  20544.697191   7372.659232  15859.079681    319.453411
PG08  -5115.339203  25598.240142  -3762.617215    -63.030749
PG09   9927.661086  14867.155347  19566.631179   -345.124642
PG10 -20531.066166  -7327.405243 -15226.582491   -371.967405
PG12  -6804.388617 -22699.446508 -12387.835536   -196.980746
PG13  13200.950073 -22752.789585   2789.941637    290.319731
PG14  20513.123103   8520.164718 -14627.434596   -100.814228
PG15   1453.627356 -25993.980670  -4727.519747    -70.656179
PG16  -7974.471771  13515.125591  21081.145883   -489.364334
PG17  15956.128054  -2519.134160 -20666.697543    597.500701
PG18 -20032.930107  -7290.453924  15902.581300    200.951494
PG19  17442.811409  -9284.278110 -17913.423361    141.471172
PG20  10827.699256 -11292.450689  21455.813760    515.929174
PG21  -6835.033426  16007.900837 -19201.268472    160.233924
PG22 -17044.749155  12764.591252 -15348.234825    239.880478
PG23 -20581.298846 -15776.753250  -5986.745763    -13.248572
PG24   -937.227542 -16134.977260 -21333.068082    259.415835
PG25 -17444.202654 -20220.825130   -893.622837    309.029553
PG26 -16744.838202   4163.498999  20179.204714    196.953540
PG27 -12470.939311  21957.300213   7336.774118    177.450104
PG28  17266.895231    719.470617 -19588.547884    373.203620
PG29  -7253.828503 -16474.834220  19458.594455   -500.564065
PG30  25335.562626   1433.369671   8342.751454   -522.722932
PG31 -25838.846165   6628.074686   2609.765908   -172.452559
PG32 -16472.627946   5637.633858 -19861.069246   -100.801159
PJ02 -26129.363607  21539.624243  30075.477009     -2.555748
PJ03 -34947.417918  23610.929738   3435.591419     -1.423559
PJ07 -25379.434427  33662.778664     33.892446     -0.005091
PR01  -9778.861985 -19019.485184 -13885.027443      7.642184
PR02 -10886.996628    366.244367 -23018.400785    514.872995
PR03  -5708.599117  18060.385075 -17006.925323     54.521264
PR04   2541.163840  25323.812760  -1617.436983    135.632446
PR05   9311.338124  18664.279109  14685.185290     90.762279
PR06  10885.266259  -1971.447047  22980.773484    -41.921731
PR07   5443.625032 -18660.745105  16586.915153     33.592243
PR08  -2604.593331 -25339.002865   1636.493215    -64.487590
PR09  23121.923092   3506.366862 -10259.779699     48.603656
PR10  12651.843705  -6006.601491 -21313.220627    -81.311899
PR11  -5958.927992 -13042.120406 -21085.858210     41.708598
PR12 -21109.977138 -12295.809467  -7353.163638     17.816003
PR13 -23375.580031  -4399.693078   9197.183685    -20.547237
PR14 -11447.464697   6775.974756  21768.445993     76.285678
PR15   6586.535428  13384.321207  20706.269143     96.988596
PR17 -18731.574133  16790.798374  -4318.074145    515.748499
PR18  -7108.645377  15824.692837 -18662.222548    112.853898
PR19   7084.751070   7625.790520 -23289.276018   -184.541408
PR20  20431.618002  -7160.041736 -13523.501010    -68.198261
PR21  18115.789362 -16979.872434   5803.424116   -291.586172
PR22   6576.589368 -15528.855823  19164.802332   -175.509840
PR23 -12141.535062  -3287.772179  22179.089620    -36.359853
PR24 -20591.859708   7868.996242  12854.359745     88.047242
EOF
